{
  "links" : {
    "next" : "https://api.nasa.gov/neo/rest/v1/feed?start_date=2003-03-23&end_date=2003-03-23&detailed=true&api_key=t0TVs3DtDT2H8Oy2Zy8m2eVrNsAVKAexjcZXUckd",
    "prev" : "https://api.nasa.gov/neo/rest/v1/feed?start_date=2003-03-21&end_date=2003-03-21&detailed=true&api_key=t0TVs3DtDT2H8Oy2Zy8m2eVrNsAVKAexjcZXUckd",
    "self" : "https://api.nasa.gov/neo/rest/v1/feed?start_date=2003-03-22&end_date=2003-03-22&detailed=true&api_key=t0TVs3DtDT2H8Oy2Zy8m2eVrNsAVKAexjcZXUckd"
  },
  "element_count" : 4,
  "near_earth_objects" : {
    "2003-03-22" : [ {
      "links" : {
        "self" : "https://api.nasa.gov/neo/rest/v1/neo/2026379?api_key=t0TVs3DtDT2H8Oy2Zy8m2eVrNsAVKAexjcZXUckd"
      },
      "neo_reference_id" : "2026379",
      "name" : "26379 (1999 HZ1)",
      "nasa_jpl_url" : "http://ssd.jpl.nasa.gov/sbdb.cgi?sstr=2026379",
      "absolute_magnitude_h" : 18.0,
      "estimated_diameter" : {
        "kilometers" : {
          "estimated_diameter_min" : 0.6676594135,
          "estimated_diameter_max" : 1.4929318344
        },
        "meters" : {
          "estimated_diameter_min" : 667.6594134952,
          "estimated_diameter_max" : 1492.931834393
        },
        "miles" : {
          "estimated_diameter_min" : 0.4148641974,
          "estimated_diameter_max" : 0.9276645469
        },
        "feet" : {
          "estimated_diameter_min" : 2190.4837101717,
          "estimated_diameter_max" : 4898.07047955
        }
      },
      "is_potentially_hazardous_asteroid" : false,
      "close_approach_data" : [ {
        "close_approach_date" : "2003-03-22",
        "epoch_date_close_approach" : 1048320000000,
        "relative_velocity" : {
          "kilometers_per_second" : "19.2897373948",
          "kilometers_per_hour" : "69443.0546211828",
          "miles_per_hour" : "43149.2135783677"
        },
        "miss_distance" : {
          "astronomical" : "0.1835465333",
          "lunar" : "71.399597168",
          "kilometers" : "27458170",
          "miles" : "17061716"
        },
        "orbiting_body" : "Earth"
      } ],
      "orbital_data" : {
        "orbit_id" : "24",
        "orbit_determination_date" : "2017-04-06 09:29:25",
        "orbit_uncertainty" : "1",
        "minimum_orbit_intersection" : ".130923",
        "jupiter_tisserand_invariant" : "4.138",
        "epoch_osculation" : "2458000.5",
        "eccentricity" : ".5761002929414842",
        "semi_major_axis" : "1.60590389146398",
        "inclination" : "8.687526232681218",
        "ascending_node_longitude" : "252.1747601972048",
        "orbital_period" : "743.3233108310145",
        "perihelion_distance" : ".6807421891557118",
        "perihelion_argument" : "200.4821423591439",
        "aphelion_distance" : "2.531065593772249",
        "perihelion_time" : "2457874.849306469187",
        "mean_anomaly" : "60.85407118542017",
        "mean_motion" : ".4843114627974335",
        "equinox" : "J2000"
      }
    }, {
      "links" : {
        "self" : "https://api.nasa.gov/neo/rest/v1/neo/3151655?api_key=t0TVs3DtDT2H8Oy2Zy8m2eVrNsAVKAexjcZXUckd"
      },
      "neo_reference_id" : "3151655",
      "name" : "(2003 FY6)",
      "nasa_jpl_url" : "http://ssd.jpl.nasa.gov/sbdb.cgi?sstr=3151655",
      "absolute_magnitude_h" : 22.4,
      "estimated_diameter" : {
        "kilometers" : {
          "estimated_diameter_min" : 0.0880146521,
          "estimated_diameter_max" : 0.1968067451
        },
        "meters" : {
          "estimated_diameter_min" : 88.0146520901,
          "estimated_diameter_max" : 196.8067450894
        },
        "miles" : {
          "estimated_diameter_min" : 0.0546897524,
          "estimated_diameter_max" : 0.122290004
        },
        "feet" : {
          "estimated_diameter_min" : 288.7619911632,
          "estimated_diameter_max" : 645.6914415591
        }
      },
      "is_potentially_hazardous_asteroid" : false,
      "close_approach_data" : [ {
        "close_approach_date" : "2003-03-22",
        "epoch_date_close_approach" : 1048320000000,
        "relative_velocity" : {
          "kilometers_per_second" : "14.4206870471",
          "kilometers_per_hour" : "51914.473369438",
          "miles_per_hour" : "32257.6348555822"
        },
        "miss_distance" : {
          "astronomical" : "0.0093019692",
          "lunar" : "3.6184659004",
          "kilometers" : "1391554.75",
          "miles" : "864672"
        },
        "orbiting_body" : "Earth"
      } ],
      "orbital_data" : {
        "orbit_id" : "22",
        "orbit_determination_date" : "2017-04-06 09:14:13",
        "orbit_uncertainty" : "1",
        "minimum_orbit_intersection" : ".00341163",
        "jupiter_tisserand_invariant" : "7.733",
        "epoch_osculation" : "2458000.5",
        "eccentricity" : ".5820928669232597",
        "semi_major_axis" : ".7300342420693026",
        "inclination" : "6.604606154991182",
        "ascending_node_longitude" : "359.2873158856723",
        "orbital_period" : "227.8312397941655",
        "perihelion_distance" : ".3050865171510333",
        "perihelion_argument" : "29.56892377631691",
        "aphelion_distance" : "1.154981966987572",
        "perihelion_time" : "2457898.856231345907",
        "mean_anomaly" : "160.6090400444316",
        "mean_motion" : "1.58011693359191",
        "equinox" : "J2000"
      }
    }, {
      "links" : {
        "self" : "https://api.nasa.gov/neo/rest/v1/neo/3712947?api_key=t0TVs3DtDT2H8Oy2Zy8m2eVrNsAVKAexjcZXUckd"
      },
      "neo_reference_id" : "3712947",
      "name" : "(2015 EQ)",
      "nasa_jpl_url" : "http://ssd.jpl.nasa.gov/sbdb.cgi?sstr=3712947",
      "absolute_magnitude_h" : 26.1,
      "estimated_diameter" : {
        "kilometers" : {
          "estimated_diameter_min" : 0.0160160338,
          "estimated_diameter_max" : 0.0358129403
        },
        "meters" : {
          "estimated_diameter_min" : 16.0160337979,
          "estimated_diameter_max" : 35.8129403019
        },
        "miles" : {
          "estimated_diameter_min" : 0.0099518989,
          "estimated_diameter_max" : 0.0222531225
        },
        "feet" : {
          "estimated_diameter_min" : 52.5460443254,
          "estimated_diameter_max" : 117.4965270602
        }
      },
      "is_potentially_hazardous_asteroid" : false,
      "close_approach_data" : [ {
        "close_approach_date" : "2003-03-22",
        "epoch_date_close_approach" : 1048320000000,
        "relative_velocity" : {
          "kilometers_per_second" : "16.0913237488",
          "kilometers_per_hour" : "57928.765495793",
          "miles_per_hour" : "35994.682093761"
        },
        "miss_distance" : {
          "astronomical" : "0.179005102",
          "lunar" : "69.6329879761",
          "kilometers" : "26778782",
          "miles" : "16639564"
        },
        "orbiting_body" : "Earth"
      } ],
      "orbital_data" : {
        "orbit_id" : "10",
        "orbit_determination_date" : "2017-04-06 08:35:14",
        "orbit_uncertainty" : "7",
        "minimum_orbit_intersection" : ".00957269",
        "jupiter_tisserand_invariant" : "8.386",
        "epoch_osculation" : "2458000.5",
        "eccentricity" : ".5030707514691186",
        "semi_major_axis" : ".6693571422477974",
        "inclination" : "8.826118405258882",
        "ascending_node_longitude" : "350.0192219488964",
        "orbital_period" : "200.0254608038369",
        "perihelion_distance" : ".3326231416959762",
        "perihelion_argument" : "355.8734816345577",
        "aphelion_distance" : "1.006091142799619",
        "perihelion_time" : "2457986.260483033817",
        "mean_anomaly" : "25.62786800852931",
        "mean_motion" : "1.799770881933118",
        "equinox" : "J2000"
      }
    }, {
      "links" : {
        "self" : "https://api.nasa.gov/neo/rest/v1/neo/3736406?api_key=t0TVs3DtDT2H8Oy2Zy8m2eVrNsAVKAexjcZXUckd"
      },
      "neo_reference_id" : "3736406",
      "name" : "(2015 XN169)",
      "nasa_jpl_url" : "http://ssd.jpl.nasa.gov/sbdb.cgi?sstr=3736406",
      "absolute_magnitude_h" : 22.2,
      "estimated_diameter" : {
        "kilometers" : {
          "estimated_diameter_min" : 0.096506147,
          "estimated_diameter_max" : 0.2157943048
        },
        "meters" : {
          "estimated_diameter_min" : 96.5061469579,
          "estimated_diameter_max" : 215.7943048444
        },
        "miles" : {
          "estimated_diameter_min" : 0.059966121,
          "estimated_diameter_max" : 0.134088323
        },
        "feet" : {
          "estimated_diameter_min" : 316.6212271853,
          "estimated_diameter_max" : 707.9865871058
        }
      },
      "is_potentially_hazardous_asteroid" : false,
      "close_approach_data" : [ {
        "close_approach_date" : "2003-03-22",
        "epoch_date_close_approach" : 1048320000000,
        "relative_velocity" : {
          "kilometers_per_second" : "12.0252655178",
          "kilometers_per_hour" : "43290.9558640091",
          "miles_per_hour" : "26899.3164367228"
        },
        "miss_distance" : {
          "astronomical" : "0.4086431443",
          "lunar" : "158.9621887207",
          "kilometers" : "61132148",
          "miles" : "37985756"
        },
        "orbiting_body" : "Earth"
      } ],
      "orbital_data" : {
        "orbit_id" : "11",
        "orbit_determination_date" : "2017-04-06 08:30:00",
        "orbit_uncertainty" : "5",
        "minimum_orbit_intersection" : ".207276",
        "jupiter_tisserand_invariant" : "6.457",
        "epoch_osculation" : "2458000.5",
        "eccentricity" : ".3804172499176294",
        "semi_major_axis" : ".9094889747877344",
        "inclination" : "17.86485622822568",
        "ascending_node_longitude" : "253.5645685639711",
        "orbital_period" : "316.8068657755614",
        "perihelion_distance" : ".5635036801685802",
        "perihelion_argument" : "352.5680209609204",
        "aphelion_distance" : "1.255474269406889",
        "perihelion_time" : "2458138.330807949812",
        "mean_anomaly" : "203.3774762410468",
        "mean_motion" : "1.136339009316289",
        "equinox" : "J2000"
      }
    } ]
  }
}